#dP2018  1 15  0  0  0.00000000      96 __u+U ITR00 FIT  IAC
## 1984  86400.00000000   900.00000000 58133 0.0000000000000
+   89   C01C02C03C04C05C06C07C08C09C10C11C12C13C14E01E02E03
+        E04E05E07E08E09E11E12E14E18E19E24E26E30G01G02G03G04
+        G05G06G07G08G09G10G11G12G13G14G15G16G17G18G19G20G21
+        G22G23G24G25G26G27G28G29G30G31G32J01J02J03R01R02R03
+        R04R05R06R07R08R09R10R11R13R14R15R16R17R18R19R20R21
+        R22R23R24R26  0  0  0  0  0  0  0  0  0  0  0  0  0
++        13 12 12 12 12  9  9  9  9  9  8  8  9  8  6  6  6
++         7  7  6  6  7  7  7  7  7  7  7  7  6  3  3  4  6
++         3  4  3  3  3  3  4  4  3  3  4  3  4  3  4  3  3
++         4  3  4  4  3  3  4  3  3  3  3 12 11 13  6  6  5
++         5  6  6  5  6  5  5  5  5  5  5  5  6  5  5  5  5
++         5  5  6  8  0  0  0  0  0  0  0  0  0  0  0  0  0
%c M  cc GPS ccc cccc cccc cccc cccc ccccc ccccc ccccc ccccc
%c cc cc ccc ccc cccc cccc cccc cccc ccccc ccccc ccccc ccccc
%f  0.0000000  0.000000000  0.00000000000  0.000000000000000
%f  0.0000000  0.000000000  0.00000000000  0.000000000000000
%i    0    0    0    0      0      0      0      0         0
%i    0    0    0    0      0      0      0      0         0
/* INFORMATION & ANALYSIS CENTER (IAC) OF MCC   (RAPID DATA)
/* S/V CLOCKS ARE ALIGNED TO GPS & GLONASS TIME RESPECTIVELY
/* USING THE BROADCAST EPHEMERIS                            
/* PCV:IGS14_1977 OL/AL:FES2004  NONE     YN ORB:CoN CLK:CoN
*  2018 01 15 11  0  0.00000000
PC01 -32299.102961  27109.730671    792.996956    242.212755
PC02   4349.703377  41924.203948  -1115.117339   -155.686576
PC03 -14820.860954  39450.295377    -97.766481   -280.353060
PC04 -39650.386539  14418.849653    277.977871   -190.193867
PC05  21809.189252  36031.428153  -1485.312878   -121.156458
PC06 -12131.472832  37112.718663 -15288.736496   -674.036795
PC07 -12451.494546  22257.279738  33702.949895   -275.341915
PC08 -25680.605082  27695.680050 -18909.418825    115.497010
PC09  -3698.527293  41818.461703  -1049.942767   -500.950901
PC10   3722.651168  28601.921852  30969.547173     54.579085
PC11   9273.491038  12937.724355 -22868.435279   -353.466054
PC12  -7366.662189  23851.078402 -12514.922672    371.475091
PC13 -11647.464618  28898.076457 -28509.756281   -147.339985
PC14  14907.158368  22658.971174   6475.167226    142.378906
PE01 -26549.974047  -4140.447754  12421.484929   -253.621361
PE02  26535.607442   4123.070972 -12434.511239      1.783077
PE03  17105.037943  -1537.766707  24103.461634     12.298988
PE04 -10679.948247  21930.245360 -16767.943914     43.615707
PE05  13528.407100  19803.795636  17341.250686    341.289289
PE07  -2043.646590 -29523.755341   -445.463428    101.589337
PE08  10373.080139 -21999.886072  16860.931227   6660.939087
PE09   2296.163263  29514.524595    380.432016   6902.918005
PE11  -3763.927098  20008.890667 -21478.037110   1853.314018
PE12 -21073.074293  19660.201909  -6711.713089   3286.266749
PE14  22936.075360 -13187.557154 -17987.352291   6647.514480
PE18 -15697.468936  17271.431334   7454.587521   6502.373698
PE19 -17079.796441   -657.265858 -24170.679634     18.373256
PE24   7229.241182  19177.662752  21343.034368   6915.424444
PE26 -15554.104429  -8890.776020  23572.170311   6383.619217
PE30  13611.886268 -10706.619682 -24007.696135   6158.492139
PG01   7877.947809  13797.087010 -21463.139300    -23.647912
PG02  16101.958662 -14513.190162  15696.406363    227.654568
PG03  12230.505301  22801.965733  -6122.095057     -9.518050
PG04 -16448.500008    971.210773  20662.989736     31.883470
PG05   4949.356585 -16671.659397  19916.312039    -16.906394
PG06  24795.930180  -7525.353127   5887.941750    414.770939
PG07  22275.263330   6815.080489  13363.546798    251.237453
PG08  -4175.084454  24985.668979  -7708.362841    -87.726872
PG09  12109.781067  10386.484132  21196.173124    493.209492
PG10 -19018.217499  -3700.186083 -18204.076548    146.306226
PG11   3801.034944  16836.775115 -20770.242302   -734.028585
PG12  -9209.582724 -23567.322723  -8577.877941    355.380345
PG13  12073.927829 -23634.718497  -1306.545814    -95.335592
PG14 -17488.978447  15090.423895 -12681.515856    -92.413832
PG15    989.501596 -24890.369005  -8846.395833   -357.348946
PG16  -5392.523101  16063.699347  20194.557639     34.022275
PG17  17018.158313  -6686.410197 -18829.583517   -130.716260
PG18 -20739.758980 -13738.924053  -8931.727605    633.553654
PG19  18064.622588 -13683.610675 -14299.935306   -463.561143
PG20 -12254.458710 -21963.442828   8459.917310    498.352062
PG21 -23419.653714  -4869.673695  12386.126524   -441.545319
PG22   7096.895129  22328.009792 -12252.135214   -257.635113
PG23   4687.301273  20410.863880  16344.373343   -219.082238
PG24  -4726.300550 -15016.184560 -21512.181672    -44.793499
PG25 -17856.377894 -19529.866808   3300.448939   -522.674037
PG26 -13501.814447   7497.456251  21618.005038   -286.686329
PG27 -12407.696153  22923.252910   4318.449382    362.649338
PG28  18496.523643   8824.143771 -16241.998468    680.026419
PG29  -8058.187546 -14813.942539  20514.864600    510.843179
PG30  26161.376052   1376.885929   4827.163647    112.358351
PG31 -24790.358246   7427.087963   6935.043959    148.498493
PG32 -17242.010475   7933.908621 -18529.054354   -532.842114
PJ01 -21069.048026  20945.706047 -25310.287714 999999.999999
PJ02 -28853.660237  22618.047660  25464.431882      0.012072
PJ03 -28684.329119  28118.144612  18128.591407     -0.236892
PR01  10009.737706  21290.477041   9872.100976     20.693795
PR02  11713.252564   3760.113961  22367.880759    290.283901
PR03   6359.752289 -14805.810253  19818.696490    121.415577
PR04  -3026.541754 -24773.406121   5318.848931    246.079554
PR05 -10552.023659 -20236.376638 -11400.534191   -230.291078
PR06 -11839.238117  -2680.806295 -22455.449934    125.192329
PR07  -6181.231218  15095.663137 -19572.417392    -27.525631
PR08   2686.508790  24667.755379  -5867.780508    -27.004551
PR09 -24263.864626  -4862.587792   6076.090769     47.763176
PR10 -14602.492433   5009.425082  20263.028395     15.965408
PR11   3681.932668  12245.935257  22093.376394    -19.452818
PR13  24222.546208   4005.838160  -6936.637272     -6.543230
PR14  14998.890585  -5062.423437 -19990.160792     23.868852
PR15   -139.014027 -11104.682932 -22963.209612     -5.219138
PR16 -19528.046832 -11694.413229 -11653.192357     83.319622
PR17  19078.183164 -16887.733672   -719.437682    101.192497
PR18   9473.229751 -18118.787855  15312.198964    181.160388
PR19  -5599.405432  -9069.034478  23180.142968    -41.311674
PR20 -18246.729128   5837.750262  16826.697306   -323.469709
PR21 -19020.921379  17008.590852    536.237820     18.941570
PR22  -8006.907047  17497.938572 -16663.018457    -10.437658
PR23   8499.550038   6530.011592 -23148.119645    130.395184
PR24  18419.269889  -6639.009148 -16375.450319   -161.115324
PR26 -18176.400390   6169.775718  16827.270581     -6.681302
EOF
